NORAD_CAT_ID,OBJECT_NAME,OBJECT_TYPE,EPOCH,MEAN_MOTION,ECCENTRICITY,INCLINATION,RA_OF_ASC_NODE,ARG_OF_PERICENTER,MEAN_ANOMALY,BSTAR,MEAN_MOTION_DOT,MEAN_MOTION_DDOT,TLE_LINE0,TLE_LINE1,TLE_LINE2,SEMIMAJOR_AXIS,PERIOD,APOGEE,PERIGEE,DECAYED
51973.0,STARLINK-3679,PAYLOAD,2022-12-27 16:27:51,15.08841058,0.0002686,53.2176,232.4919,32.2647,327.8509,0.00017193,2.449e-05,0.0,0 STARLINK-3679,1 51973U 22025T   22361.68601140  .00002449  00000-0  17193-3 0  9999,2 51973  53.2176 232.4919 0002686  32.2647 327.8509 15.08841058 44874,6917.877,95.437,541.6,537.884,0.0
51973.0,STARLINK-3679,PAYLOAD,2022-12-28 00:24:47,15.08830168,0.0002784,53.2175,231.0053,29.379,330.7358,0.00014031,1.945e-05,0.0,0 STARLINK-3679,1 51973U 22025T   22362.01722112  .00001945  00000-0  14031-3 0  9998,2 51973  53.2175 231.0053 0002784  29.3790 330.7358 15.08830168 44923,6917.91,95.438,541.701,537.849,0.0
51973.0,STARLINK-3679,PAYLOAD,2022-12-28 17:54:02,15.08840243,0.0002989,53.2177,227.7343,33.104,327.0139,9.5848e-05,1.237e-05,0.0,0 STARLINK-3679,1 51973U 22025T   22362.74585860  .00001237  00000-0  95848-4 0  9995,2 51973  53.2177 227.7343 0002989  33.1040 327.0139 15.08840243 46122,6917.88,95.438,541.812,537.677,0.0
51973.0,STARLINK-3679,PAYLOAD,2022-12-29 00:15:35,15.08833929,0.0003031,53.2177,226.5448,33.4502,326.6681,-1.8846e-05,-5.89e-06,0.0,0 STARLINK-3679,1 51973U 22025T   22363.01082684 -.00000589  00000-0 -18846-4 0  9996,2 51973  53.2177 226.5448 0003031  33.4502 326.6681 15.08833929 46164,6917.899,95.438,541.861,537.6669999999998,0.0
51973.0,STARLINK-3679,PAYLOAD,2022-12-29 08:12:32,15.0882486,0.0003009,53.2173,225.0585,34.4858,325.6329,-0.00014491,-2.593e-05,0.0,0 STARLINK-3679,1 51973U 22025T   22363.34203936 -.00002593  00000-0 -14491-3 0  9995,2 51973  53.2173 225.0585 0003009  34.4858 325.6329 15.08824860 46214,6917.927,95.439,541.873,537.71,0.0
51973.0,STARLINK-3679,PAYLOAD,2022-12-30 08:03:19,15.08829352,0.0003373,53.2174,220.5986,34.9548,325.1665,-5.5296e-06,-3.77e-06,0.0,0 STARLINK-3679,1 51973U 22025T   22364.33564189 -.00000377  00000-0 -55296-5 0  9993,2 51973  53.2174 220.5986 0003373  34.9548 325.1665 15.08829352 46360,6917.913000000001,95.438,542.111,537.445,0.0
51973.0,STARLINK-3679,PAYLOAD,2022-12-30 20:46:23,15.0883791,0.0003,53.2167,218.219,37.7172,322.403,0.0001134,1.517e-05,0.0,0 STARLINK-3679,1 51973U 22025T   22364.86555535  .00001517  00000-0  11340-3 0  9991,2 51973  53.2167 218.2190 0003000  37.7172 322.4030 15.08837910 46448,6917.887,95.438,541.827,537.6759999999998,0.0
51973.0,STARLINK-3679,PAYLOAD,2022-12-31 07:54:05,15.08851024,0.0003048,53.2171,216.1374,38.0818,322.0389,9.6096e-05,1.242e-05,0.0,0 STARLINK-3679,1 51973U 22025T   22365.32922842  .00001242  00000-0  96096-4 0  9999,2 51973  53.2171 216.1374 0003048  38.0818 322.0389 15.08851024 46510,6917.847,95.437,541.82,537.6030000000002,0.0
51973.0,STARLINK-3679,PAYLOAD,2022-12-31 20:37:10,15.08849108,0.0003129999999999,53.217,213.7585,37.905,322.2162,0.00033032,4.974e-05,0.0,0 STARLINK-3679,1 51973U 22025T   22365.85914843  .00004974  00000-0  33032-3 0  9994,2 51973  53.2170 213.7585 0003130  37.9050 322.2162 15.08849108 45503,6917.853,95.437,541.883,537.552,0.0
51973.0,STARLINK-3679,PAYLOAD,2023-01-01 14:06:25,15.08847643,0.0003231,53.2154,210.4872,39.8777,320.2452,8.090199999999999e-05,9.99e-06,0.0,0 STARLINK-3679,1 51973U 22025T   23001.58779285  .00000999  00000-0  80902-4 0  9993,2 51973  53.2154 210.4872 0003231  39.8777 320.2452 15.08847643 46702,6917.857,95.437,541.957,537.487,0.0
51973.0,STARLINK-3679,PAYLOAD,2023-01-01 20:27:58,15.08837953,0.0003218999999999,53.2157,209.2979,40.6073,319.5158,-2.6605e-05,-7.12e-06,0.0,0 STARLINK-3679,1 51973U 22025T   23001.85275748 -.00000712  00000-0 -26605-4 0  9993,2 51973  53.2157 209.2979 0003219  40.6073 319.5158 15.08837953 45654,6917.887,95.438,541.979,537.525,0.0
51973.0,STARLINK-3679,PAYLOAD,2023-01-02 01:14:07,15.08838229,0.0003165,53.2172,208.4057,38.9947,321.1273,-6.1339e-06,-3.86e-06,0.0,0 STARLINK-3679,1 51973U 22025T   23002.05148067 -.00000386  00000-0 -61339-5 0  9990,2 51973  53.2172 208.4057 0003165  38.9947 321.1273 15.08838229 46777,6917.886,95.438,541.94,537.561,0.0
51973.0,STARLINK-3679,PAYLOAD,2023-01-02 20:18:45,15.08845265,0.000316,53.2169,204.8374,39.9472,320.1752,-2.755e-05,-7.27e-06,0.0,0 STARLINK-3679,1 51973U 22025T   23002.84635433 -.00000727  00000-0 -27550-4 0  9990,2 51973  53.2169 204.8374 0003160  39.9472 320.1752 15.08845265 45806,6917.864000000001,95.437,541.915,537.543,0.0
51973.0,STARLINK-3679,PAYLOAD,2023-01-02 21:54:08,15.08846388,0.0003168,53.2169,204.5401,39.2981,320.8241,-4.3581e-05,-9.82e-06,0.0,0 STARLINK-3679,1 51973U 22025T   23002.91259363 -.00000982  00000-0 -43581-4 0  9997,2 51973  53.2169 204.5401 0003168  39.2981 320.8241 15.08846388 46909,6917.861,95.437,541.9169999999998,537.534,0.0
51973.0,STARLINK-3679,PAYLOAD,2023-01-03 05:51:03,15.08848635,0.0003218999999999,53.217,203.0533,40.0303,320.0926,-1.942e-05,-5.98e-06,0.0,0 STARLINK-3679,1 51973U 22025T   23003.24379077 -.00000598  00000-0 -19420-4 0  9997,2 51973  53.2170 203.0533 0003219  40.0303 320.0926 15.08848635 45869,6917.854,95.437,541.946,537.492,0.0
51973.0,STARLINK-3679,PAYLOAD,2023-01-04 05:41:50,15.08846923,0.0003201,53.217,198.5931,41.6142,318.5093,0.00017228,2.455e-05,0.0,0 STARLINK-3679,1 51973U 22025T   23004.23738585  .00002455  00000-0  17228-3 0  9995,2 51973  53.2170 198.5931 0003201  41.6142 318.5093 15.08846923 47102,6917.859,95.437,541.939,537.51,0.0
51973.0,STARLINK-3679,PAYLOAD,2023-01-04 21:35:41,15.08843567,0.0003235,53.2173,195.6199,43.8786,316.2462,7.08e-05,8.38e-06,0.0,0 STARLINK-3679,1 51973U 22025T   23004.89978896  .00000838  00000-0  70800-4 0  9997,2 51973  53.2173 195.6199 0003235  43.8786 316.2462 15.08843567 47201,6917.869000000002,95.437,541.972,537.497,0.0
51973.0,STARLINK-3679,PAYLOAD,2023-01-05 13:29:32,15.08847567,0.0003171,53.2172,192.6467,43.3093,316.8148,6.3937e-05,7.29e-06,0.0,0 STARLINK-3679,1 51973U 22025T   23005.56218367  .00000729  00000-0  63937-4 0  9994,2 51973  53.2172 192.6467 0003171  43.3093 316.8148 15.08847567 46211,6917.857,95.437,541.9159999999998,537.529,0.0
51973.0,STARLINK-3679,PAYLOAD,2023-01-06 05:23:23,15.08845424,0.0003193,53.2176,189.671,43.5955,316.5289,4.9379e-05,4.97e-06,0.0,0 STARLINK-3679,1 51973U 22025T   23006.22458092  .00000497  00000-0  49379-4 0  9995,2 51973  53.2176 189.6710 0003193  43.5955 316.5289 15.08845424 47400,6917.864000000001,95.437,541.938,537.52,0.0
51973.0,STARLINK-3679,PAYLOAD,2023-01-06 21:17:15,15.08843014,0.0003286,53.2173,186.6984,44.7842,315.3415,5.3473e-05,5.62e-06,0.0,0 STARLINK-3679,1 51973U 22025T   23006.88698065  .00000562  00000-0  53473-4 0  9996,2 51973  53.2173 186.6984 0003286  44.7842 315.3415 15.08843014 46419,6917.871,95.437,542.009,537.4630000000002,0.0
51973.0,STARLINK-3679,PAYLOAD,2023-01-07 05:14:10,15.0884744,0.0003318,53.2174,185.2118,45.5311,314.5952,7.649e-05,9.29e-06,0.0,0 STARLINK-3679,1 51973U 22025T   23007.21817662  .00000929  00000-0  76490-4 0  9991,2 51973  53.2174 185.2118 0003318  45.5311 314.5952 15.08847440 46469,6917.858,95.437,542.018,537.427,0.0
51973.0,STARLINK-3679,PAYLOAD,2023-01-07 11:35:42,15.08848031,0.0003304,53.2173,184.0226,45.7497,314.3766,6.4194e-05,7.33e-06,0.0,0 STARLINK-3679,1 51973U 22025T   23007.48313536  .00000733  00000-0  64194-4 0  9992,2 51973  53.2173 184.0226 0003304  45.7497 314.3766 15.08848031 47590,6917.856,95.437,542.007,537.435,0.0
51973.0,STARLINK-3679,PAYLOAD,2023-01-07 14:46:29,15.08842281,0.0003183,53.2173,183.4268,45.9406,314.1848,4.902e-06,-2.11e-06,0.0,0 STARLINK-3679,1 51973U 22025T   23007.61561996 -.00000211  00000-0  49020-5 0  9996,2 51973  53.2173 183.4268 0003183  45.9406 314.1848 15.08842281 47619,6917.873000000001,95.437,541.94,537.536,0.0
51973.0,STARLINK-3679,PAYLOAD,2023-01-08 05:04:57,15.08845806,0.0003136,53.2173,180.7503,48.1142,312.0117,-1.6736e-05,-5.55e-06,0.0,0 STARLINK-3679,1 51973U 22025T   23008.21177660 -.00000555  00000-0 -16736-4 0  9993,2 51973  53.2173 180.7503 0003136  48.1142 312.0117 15.08845806 46612,6917.863,95.437,541.8969999999998,537.558,0.0
51973.0,STARLINK-3679,PAYLOAD,2023-01-08 20:58:49,15.08830244,0.0003113,53.2173,177.7762,49.2849,310.8413,7.1678e-05,8.52e-06,0.0,0 STARLINK-3679,1 51973U 22025T   23008.87418508  .00000852  00000-0  71678-4 0  9998,2 51973  53.2173 177.7762 0003113  49.2849 310.8413 15.08830244 46712,6917.91,95.438,541.929,537.622,0.0
51973.0,STARLINK-3679,PAYLOAD,2023-01-09 11:17:17,15.08844376,0.0003253999999999,53.2171,175.1016,45.4383,314.6875,2.0745e-05,4.1e-07,0.0,0 STARLINK-3679,1 51973U 22025T   23009.47033666  .00000041  00000-0  20745-4 0  9992,2 51973  53.2171 175.1016 0003254  45.4383 314.6875 15.08844376 46806,6917.866999999998,95.437,541.9830000000002,537.481,0.0
51973.0,STARLINK-3679,PAYLOAD,2023-01-09 17:38:50,15.08834447,0.0003117,53.2172,173.9117,44.9358,315.1886,1.1291e-05,-1.09e-06,0.0,0 STARLINK-3679,1 51973U 22025T   23009.73530336 -.00000109  00000-0  11291-4 0  9999,2 51973  53.2172 173.9117 0003117  44.9358 315.1886 15.08834447 46849,6917.897,95.438,541.919,537.606,0.0
51973.0,STARLINK-3679,PAYLOAD,2023-01-10 11:08:04,15.08835747,0.0003133,53.2175,170.6401,44.4309,315.6934,5.3874e-05,5.69e-06,0.0,0 STARLINK-3679,1 51973U 22025T   23010.46394314  .00000569  00000-0  53874-4 0  9997,2 51973  53.2175 170.6401 0003133  44.4309 315.6934 15.08835747 48048,6917.893,95.438,541.9259999999998,537.591,0.0
51973.0,STARLINK-3679,PAYLOAD,2023-01-10 17:29:37,15.08829556,0.0003053,53.2175,169.452,40.172,319.9498,9.165e-06,-1.43e-06,0.0,0 STARLINK-3679,1 51973U 22025T   23010.72890909 -.00000143  00000-0  91650-5 0  9991,2 51973  53.2175 169.4520 0003053  40.1720 319.9498 15.08829556 48084,6917.911999999998,95.438,541.889,537.665,0.0
